{"type": "FeatureCollection", "features": [ {"type": "Feature", "properties": {"norad_id": 34117, "name": "COSMOS 2251 DEB", "group": "cosmos-2251-debris", "lat": 6.86058042296862, "lon": 142.30162526159359, "alt_km": 787.6734699194913, "timestamp": "2025-12-23T07:45:09.798875+00:00", "meta": {"OBJECT_NAME": "COSMOS 2251 DEB", "OBJECT_ID": "1993-036KN", "EPOCH": "2025-12-22T15:57:05.607936", "MEAN_MOTION": 14.40049269, "ECCENTRICITY": 0.00549711, "INCLINATION": 74.0394, "RA_OF_ASC_NODE": 325.4908, "ARG_OF_PERICENTER": 39.0624, "MEAN_ANOMALY": 321.448, "EPHEMERIS_TYPE": 0, "CLASSIFICATION_TYPE": "U", "NORAD_CAT_ID": 34117, "ELEMENT_SET_NO": 999, "REV_AT_EPOCH": 88266, "BSTAR": 0.0005902457, "MEAN_MOTION_DOT": 1.868e-05, "MEAN_MOTION_DDOT": 0}, "tle": {"line1": "1 34117U 93036KN  25356.66464824  .00001868  00000+0  59025-3 0  9994", "line2": "2 34117  74.0394 325.4908 0054971  39.0624 321.4480 14.40049269882667"}}, "geometry": {"type": "Point", "coordinates": [142.30162526159359, 6.86058042296862]}}, {"type": "Feature", "properties": {"norad_id": 34118, "name": "COSMOS 2251 DEB", "group": "cosmos-2251-debris", "lat": 35.30830454022145, "lon": 36.11857780005353, "alt_km": 579.8585730278382, "timestamp": "2025-12-23T07:45:09.798885+00:00", "meta": {"OBJECT_NAME": "COSMOS 2251 DEB", "OBJECT_ID": "1993-036KP", "EPOCH": "2025-12-22T02:52:25.784832", "MEAN_MOTION": 14.9423226, "ECCENTRICITY": 0.00600908, "INCLINATION": 73.9511, "RA_OF_ASC_NODE": 230.318, "ARG_OF_PERICENTER": 58.165, "MEAN_ANOMALY": 93.962, "EPHEMERIS_TYPE": 0, "CLASSIFICATION_TYPE": "U", "NORAD_CAT_ID": 34118, "ELEMENT_SET_NO": 999, "REV_AT_EPOCH": 89316, "BSTAR": 0.0014639243, "MEAN_MOTION_DOT": 0.0001627, "MEAN_MOTION_DDOT": 0}, "tle": {"line1": "1 34118U 93036KP  25356.11974288  .00016270  00000+0  14639-2 0  9999", "line2": "2 34118  73.9511 230.3180 0060090  58.1650  93.9620 14.94232260893161"}}, "geometry": {"type": "Point", "coordinates": [36.11857780005353, 35.30830454022145]}}, {"type": "Feature", "properties": {"norad_id": 34120, "name": "COSMOS 2251 DEB", "group": "cosmos-2251-debris", "lat": 19.762955812244083, "lon": 11.968032226249472, "alt_km": 992.4292082024922, "timestamp": "2025-12-23T07:45:09.798896+00:00", "meta": {"OBJECT_NAME": "COSMOS 2251 DEB", "OBJECT_ID": "1993-036KR", "EPOCH": "2025-12-22T23:00:52.638912", "MEAN_MOTION": 13.98694938, "ECCENTRICITY": 0.01823976, "INCLINATION": 73.9902, "RA_OF_ASC_NODE": 198.5195, "ARG_OF_PERICENTER": 23.9382, "MEAN_ANOMALY": 101.3179, "EPHEMERIS_TYPE": 0, "CLASSIFICATION_TYPE": "U", "NORAD_CAT_ID": 34120, "ELEMENT_SET_NO": 999, "REV_AT_EPOCH": 86123, "BSTAR": 0.00028165609, "MEAN_MOTION_DOT": 4.43e-06, "MEAN_MOTION_DDOT": 0}, "tle": {"line1": "1 34120U 93036KR  25356.95894258  .00000443  00000+0  28166-3 0  9998", "line2": "2 34120  73.9902 198.5195 0182397  23.9382 101.3179 13.98694938861239"}}, "geometry": {"type": "Point", "coordinates": [11.968032226249472, 19.762955812244083]}}, {"type": "Feature", "properties": {"norad_id": 34121, "name": "COSMOS 2251 DEB", "group": "cosmos-2251-debris", "lat": 61.926503038272855, "lon": -133.52901631323797, "alt_km": 1087.825514039605, "timestamp": "2025-12-23T07:45:09.798905+00:00", "meta": {"OBJECT_NAME": "COSMOS 2251 DEB", "OBJECT_ID": "1993-036KS", "EPOCH": "2025-12-22T16:28:59.522592", "MEAN_MOTION": 13.91964229, "ECCENTRICITY": 0.02409262, "INCLINATION": 73.9923, "RA_OF_ASC_NODE": 80.1242, "ARG_OF_PERICENTER": 283.4945, "MEAN_ANOMALY": 243.4023, "EPHEMERIS_TYPE": 0, "CLASSIFICATION_TYPE": "U", "NORAD_CAT_ID": 34121, "ELEMENT_SET_NO": 999, "REV_AT_EPOCH": 85263, "BSTAR": 0.0010805556, "MEAN_MOTION_DOT": 1.722e-05, "MEAN_MOTION_DDOT": 0}, "tle": {"line1": "1 34121U 93036KS  25356.68680003  .00001722  00000+0  10806-2 0  9992", "line2": "2 34121  73.9923  80.1242 0240926 283.4945 243.4023 13.91964229852639"}}, "geometry": {"type": "Point", "coordinates": [-133.52901631323797, 61.926503038272855]}}, {"type": "Feature", "properties": {"norad_id": 34122, "name": "COSMOS 2251 DEB", "group": "cosmos-2251-debris", "lat": -73.8998813148662, "lon": 0.8896081985691531, "alt_km": 676.9636113014212, "timestamp": "2025-12-23T07:45:09.798915+00:00", "meta": {"OBJECT_NAME": "COSMOS 2251 DEB", "OBJECT_ID": "1993-036KT", "EPOCH": "2025-12-22T07:41:52.844928", "MEAN_MOTION": 14.65152033, "ECCENTRICITY": 0.00848802, "INCLINATION": 74.0366, "RA_OF_ASC_NODE": 100.2006, "ARG_OF_PERICENTER": 354.3443, "MEAN_ANOMALY": 30.168, "EPHEMERIS_TYPE": 0, "CLASSIFICATION_TYPE": "U", "NORAD_CAT_ID": 34122, "ELEMENT_SET_NO": 999, "REV_AT_EPOCH": 88825, "BSTAR": 0.0010197374, "MEAN_MOTION_DOT": 5.753e-05, "MEAN_MOTION_DDOT": 0}, "tle": {"line1": "1 34122U 93036KT  25356.32075052  .00005753  00000+0  10197-2 0  9997", "line2": "2 34122  74.0366 100.2006 0084880 354.3443  30.1680 14.65152033888252"}}, "geometry": {"type": "Point", "coordinates": [0.8896081985691531, -73.8998813148662]}}, {"type": "Feature", "properties": {"norad_id": 34127, "name": "COSMOS 2251 DEB", "group": "cosmos-2251-debris", "lat": -14.689324136921933, "lon": 20.473708602173296, "alt_km": 833.7643324470755, "timestamp": "2025-12-23T07:45:09.798926+00:00", "meta": {"OBJECT_NAME": "COSMOS 2251 DEB", "OBJECT_ID": "1993-036KY", "EPOCH": "2025-12-22T18:58:28.279776", "MEAN_MOTION": 14.31629078, "ECCENTRICITY": 0.01147385, "INCLINATION": 74.1793, "RA_OF_ASC_NODE": 25.6983, "ARG_OF_PERICENTER": 223.7046, "MEAN_ANOMALY": 257.0699, "EPHEMERIS_TYPE": 0, "CLASSIFICATION_TYPE": "U", "NORAD_CAT_ID": 34127, "ELEMENT_SET_NO": 999, "REV_AT_EPOCH": 86915, "BSTAR": 0.0015129075, "MEAN_MOTION_DOT": 4.309e-05, "MEAN_MOTION_DDOT": 0}, "tle": {"line1": "1 34127U 93036KY  25356.79060509  .00004309  00000+0  15129-2 0  9990", "line2": "2 34127  74.1793  25.6983 0114738 223.7046 257.0699 14.31629078869159"}}, "geometry": {"type": "Point", "coordinates": [20.473708602173296, -14.689324136921933]}}, {"type": "Feature", "properties": {"norad_id": 34128, "name": "COSMOS 2251 DEB", "group": "cosmos-2251-debris", "lat": -33.13761193029068, "lon": -95.67772086218116, "alt_km": 558.7122697611549, "timestamp": "2025-12-23T07:45:09.798936+00:00", "meta": {"OBJECT_NAME": "COSMOS 2251 DEB", "OBJECT_ID": "1993-036KZ", "EPOCH": "2025-12-22T21:00:04.879008", "MEAN_MOTION": 15.01528344, "ECCENTRICITY": 0.00259494, "INCLINATION": 73.9994, "RA_OF_ASC_NODE": 276.0336, "ARG_OF_PERICENTER": 25.7252, "MEAN_ANOMALY": 39.4664, "EPHEMERIS_TYPE": 0, "CLASSIFICATION_TYPE": "U", "NORAD_CAT_ID": 34128, "ELEMENT_SET_NO": 999, "REV_AT_EPOCH": 89319, "BSTAR": 0.0016014086, "MEAN_MOTION_DOT": 0.00020903, "MEAN_MOTION_DDOT": 0}, "tle": {"line1": "1 34128U 93036KZ  25356.87505647  .00020903  00000+0  16014-2 0  9999", "line2": "2 34128  73.9994 276.0336 0025949  25.7252  39.4664 15.01528344893195"}}, "geometry": {"type": "Point", "coordinates": [-95.67772086218116, -33.13761193029068]}}, {"type": "Feature", "properties": {"norad_id": 34129, "name": "COSMOS 2251 DEB", "group": "cosmos-2251-debris", "lat": -9.106738022607166, "lon": -43.815822520095374, "alt_km": 629.8027533305749, "timestamp": "2025-12-23T07:45:09.798946+00:00", "meta": {"OBJECT_NAME": "COSMOS 2251 DEB", "OBJECT_ID": "1993-036LA", "EPOCH": "2025-12-22T15:31:38.733312", "MEAN_MOTION": 14.75903112, "ECCENTRICITY": 0.00334138, "INCLINATION": 74.0354, "RA_OF_ASC_NODE": 320.1368, "ARG_OF_PERICENTER": 38.594, "MEAN_ANOMALY": 321.7613, "EPHEMERIS_TYPE": 0, "CLASSIFICATION_TYPE": "U", "NORAD_CAT_ID": 34129, "ELEMENT_SET_NO": 999, "REV_AT_EPOCH": 61444, "BSTAR": 0.001516022, "MEAN_MOTION_DOT": 0.00010494, "MEAN_MOTION_DDOT": 0}, "tle": {"line1": "1 34129U 93036LA  25356.64697608  .00010494  00000+0  15160-2 0  9999", "line2": "2 34129  74.0354 320.1368 0033413  38.5940 321.7613 14.75903112614445"}}, "geometry": {"type": "Point", "coordinates": [-43.815822520095374, -9.106738022607166]}}, {"type": "Feature", "properties": {"norad_id": 34136, "name": "COSMOS 2251 DEB", "group": "cosmos-2251-debris", "lat": -48.571353927554, "lon": 2.810818724510568, "alt_km": 693.46854197222, "timestamp": "2025-12-23T07:45:09.798956+00:00", "meta": {"OBJECT_NAME": "COSMOS 2251 DEB", "OBJECT_ID": "1993-036LH", "EPOCH": "2025-12-22T19:47:53.212416", "MEAN_MOTION": 14.80139531, "ECCENTRICITY": 0.00851041, "INCLINATION": 74.0198, "RA_OF_ASC_NODE": 22.7412, "ARG_OF_PERICENTER": 142.9501, "MEAN_ANOMALY": 32.586, "EPHEMERIS_TYPE": 0, "CLASSIFICATION_TYPE": "U", "NORAD_CAT_ID": 34136, "ELEMENT_SET_NO": 999, "REV_AT_EPOCH": 90159, "BSTAR": 0.00034657291, "MEAN_MOTION_DOT": 2.762e-05, "MEAN_MOTION_DDOT": 0}, "tle": {"line1": "1 34136U 93036LH  25356.82492144  .00002762  00000+0  34657-3 0  9997", "line2": "2 34136  74.0198  22.7412 0085104 142.9501  32.5860 14.80139531901599"}}, "geometry": {"type": "Point", "coordinates": [2.810818724510568, -48.571353927554]}}, {"type": "Feature", "properties": {"norad_id": 34139, "name": "COSMOS 2251 DEB", "group": "cosmos-2251-debris", "lat": -46.41570977514865, "lon": -143.62099017721812, "alt_km": 672.4666865586114, "timestamp": "2025-12-23T07:45:09.798966+00:00", "meta": {"OBJECT_NAME": "COSMOS 2251 DEB", "OBJECT_ID": "1993-036LL", "EPOCH": "2025-12-22T17:25:31.373184", "MEAN_MOTION": 14.59182751, "ECCENTRICITY": 0.00424627, "INCLINATION": 74.0298, "RA_OF_ASC_NODE": 235.0274, "ARG_OF_PERICENTER": 304.4945, "MEAN_ANOMALY": 111.9768, "EPHEMERIS_TYPE": 0, "CLASSIFICATION_TYPE": "U", "NORAD_CAT_ID": 34139, "ELEMENT_SET_NO": 999, "REV_AT_EPOCH": 88295, "BSTAR": 0.0013042773, "MEAN_MOTION_DOT": 6.201e-05, "MEAN_MOTION_DDOT": 0}, "tle": {"line1": "1 34139U 93036LL  25356.72605756  .00006201  00000+0  13043-2 0  9991", "line2": "2 34139  74.0298 235.0274 0042462 304.4945 111.9768 14.59182751882950"}}, "geometry": {"type": "Point", "coordinates": [-143.62099017721812, -46.41570977514865]}}]}